COMMENT,ORIGINATOR,NORAD_CAT_ID,OBJECT_NAME,OBJECT_TYPE,CLASSIFICATION_TYPE,INTLDES,EPOCH,EPOCH_MICROSECONDS,MEAN_MOTION,ECCENTRICITY,INCLINATION,RA_OF_ASC_NODE,ARG_OF_PERICENTER,MEAN_ANOMALY,EPHEMERIS_TYPE,ELEMENT_SET_NO,REV_AT_EPOCH,BSTAR,MEAN_MOTION_DOT,MEAN_MOTION_DDOT,FILE,TLE_LINE0,TLE_LINE1,TLE_LINE2,OBJECT_ID,OBJECT_NUMBER,SEMIMAJOR_AXIS,PERIOD,APOGEE,PERIGEE,DECAYED
GENERATED VIA SPACETRACK.ORG API,18 SPCS,52365,STARLINK-3874,PAYLOAD,U,22045AL,2022-08-16 22:00:00,999936,15.0719599,0.0001994,53.2133,268.4303,50.4863,63.3893,0,999,130,0.0017145,0.00025904,0,3538178,0 STARLINK-3874,1 52365U 22045AL  22228.91667824  .00025904  00000-0  17145-2 0  9993,2 52365  53.2133 268.4303 0001994  50.4863  63.3893 15.07195990  1307,2022-045AL,52365,6922.91,95.542,546.155,543.395,0
GENERATED VIA SPACETRACK.ORG API,18 SPCS,52365,STARLINK-3874,PAYLOAD,U,22045AL,2022-08-17 14:00:01,224,15.07203818,0.0002173,53.2131,265.4465,44.9543,88.1961,0,999,1964,-0.00059258,-9.292e-05,0,3538668,0 STARLINK-3874,1 52365U 22045AL  22229.58334491 -.00009292  00000-0 -59258-3 0  9994,2 52365  53.2131 265.4465 0002173  44.9543  88.1961 15.07203818 19640,2022-045AL,52365,6922.886,95.541,546.255,543.247,0
GENERATED VIA SPACETRACK.ORG API,18 SPCS,52365,STARLINK-3874,PAYLOAD,U,22045AL,2022-08-17 16:00:00,999936,15.07216399,0.0002137,53.2131,265.0728,45.2015,180.353,0,999,130,-0.0028995,-0.00044162,0,3538809,0 STARLINK-3874,1 52365U 22045AL  22229.66667824 -.00044162  00000-0 -28995-2 0  9990,2 52365  53.2131 265.0728 0002137  45.2015 180.3530 15.07216399  1305,2022-045AL,52365,6922.848,95.54,546.192,543.233,0
GENERATED VIA SPACETRACK.ORG API,18 SPCS,52365,STARLINK-3874,PAYLOAD,U,22045AL,2022-08-18 14:00:01,224,15.07185312,0.0002229,53.2134,260.9682,44.3958,117.6226,0,999,130,0.0024296,0.00036874,0,3539281,0 STARLINK-3874,1 52365U 22045AL  22230.58334491  .00036874  00000-0  24296-2 0  9993,2 52365  53.2134 260.9682 0002229  44.3958 117.6226 15.07185312  1304,2022-045AL,52365,6922.943,95.542,546.351,543.265,0
GENERATED VIA SPACETRACK.ORG API,18 SPCS,52365,STARLINK-3874,PAYLOAD,U,22045AL,2022-08-18 22:00:00,999936,15.07186037,0.0002069,53.214,259.4731,49.05,122.5995,0,999,1984,0.0025223,0.000383,0,3539566,0 STARLINK-3874,1 52365U 22045AL  22230.91667824  .00038300  00000-0  25223-2 0  9996,2 52365  53.2140 259.4731 0002069  49.0500 122.5995 15.07186037 19847,2022-045AL,52365,6922.941,95.542,546.238,543.373,0
GENERATED VIA SPACETRACK.ORG API,18 SPCS,52365,STARLINK-3874,PAYLOAD,U,22045AL,2022-08-18 22:00:00,999936,15.07186037,0.0002069,53.214,259.4731,49.05,122.5995,0,999,130,0.0025223,0.000383,0,3539615,0 STARLINK-3874,1 52365U 22045AL  22230.91667824  .00038300  00000-0  25223-2 0  9996,2 52365  53.2140 259.4731 0002069  49.0500 122.5995 15.07186037  1309,2022-045AL,52365,6922.941,95.542,546.238,543.373,0
GENERATED VIA SPACETRACK.ORG API,18 SPCS,52365,STARLINK-3874,PAYLOAD,U,22045AL,2022-08-19 14:00:01,224,15.07200517,0.0002253,53.2138,256.49,43.9249,146.991,0,999,130,-0.00039666,-6.316e-05,0,3540406,0 STARLINK-3874,1 52365U 22045AL  22231.58334491 -.00006316  00000-0 -39666-3 0  9992,2 52365  53.2138 256.4900 0002253  43.9249 146.9910 15.07200517  1306,2022-045AL,52365,6922.896,95.541,546.321,543.201,0
GENERATED VIA SPACETRACK.ORG API,18 SPCS,52365,STARLINK-3874,PAYLOAD,U,22045AL,2022-08-19 16:00:00,999936,15.07212134,0.0002198,53.2139,256.1164,44.4722,238.8472,0,999,1995,-0.0024605,-0.00037549,0,3540370,0 STARLINK-3874,1 52365U 22045AL  22231.66667824 -.00037549  00000-0 -24605-2 0  9998,2 52365  53.2139 256.1164 0002198  44.4722 238.8472 15.07212134 19958,2022-045AL,52365,6922.861,95.541,546.247,543.204,0
GENERATED VIA SPACETRACK.ORG API,18 SPCS,52365,STARLINK-3874,PAYLOAD,U,22045AL,2022-08-19 22:00:00,999936,15.07169282,0.0002054,53.2141,254.9956,47.7027,152.8407,0,999,130,0.002587,0.00039277,0,3540705,0 STARLINK-3874,1 52365U 22045AL  22231.91667824  .00039277  00000-0  25870-2 0  9999,2 52365  53.2141 254.9956 0002054  47.7027 152.8407 15.07169282  1309,2022-045AL,52365,6922.992,95.543,546.279,543.435,0
GENERATED VIA SPACETRACK.ORG API,18 SPCS,52365,STARLINK-3874,PAYLOAD,U,22045AL,2022-08-20 08:00:01,224,15.07197745,0.0002248,53.2141,253.1313,46.1583,256.3961,0,999,2005,-0.00077115,-0.00012001,0,3540984,0 STARLINK-3874,1 52365U 22045AL  22232.33334491 -.00012001  00000-0 -77115-3 0  9995,2 52365  53.2141 253.1313 0002248  46.1583 256.3961 15.07197745 20055,2022-045AL,52365,6922.905,95.542,546.326,543.213,0
GENERATED VIA SPACETRACK.ORG API,18 SPCS,52365,STARLINK-3874,PAYLOAD,U,22045AL,2022-08-20 14:00:01,224,15.07192995,0.0002269,53.214,252.012,44.2679,175.4982,0,999,130,0.00086698,0.00012934,0,3541419,0 STARLINK-3874,1 52365U 22045AL  22232.58334491  .00012934  00000-0  86698-3 0  9991,2 52365  53.2140 252.0120 0002269  44.2679 175.4982 15.07192995  1309,2022-045AL,52365,6922.919,95.542,546.355,543.213,0
GENERATED VIA SPACETRACK.ORG API,18 SPCS,52365,STARLINK-3874,PAYLOAD,U,22045AL,2022-08-20 22:00:00,999936,15.07177245,0.0002088,53.2141,250.5177,49.1483,180.2467,0,999,130,0.0026846,0.00040787,0,3541760,0 STARLINK-3874,1 52365U 22045AL  22232.91667824  .00040787  00000-0  26846-2 0  9992,2 52365  53.2141 250.5177 0002088  49.1483 180.2467 15.07177245  1304,2022-045AL,52365,6922.967,95.543,546.278,543.387,0
GENERATED VIA SPACETRACK.ORG API,18 SPCS,52365,STARLINK-3874,PAYLOAD,U,22045AL,2022-08-21 06:00:00,999648,15.07212745,0.0002208,53.2141,249.0264,48.1769,190.8331,0,999,2019,-0.0015551,-0.00023882,0,3542006,0 STARLINK-3874,1 52365U 22045AL  22233.25001157 -.00023882  00000-0 -15551-2 0  9991,2 52365  53.2141 249.0264 0002208  48.1769 190.8331 15.07212745 20194,2022-045AL,52365,6922.859,95.541,546.252,543.195,0
GENERATED VIA SPACETRACK.ORG API,18 SPCS,52365,STARLINK-3874,PAYLOAD,U,22045AL,2022-08-21 14:00:01,224,15.07205068,0.000227,53.2137,247.5341,45.5776,203.0583,0,999,130,-1.6627e-05,-5.37e-06,0,3542305,0 STARLINK-3874,1 52365U 22045AL  22233.58334491 -.00000537  00000-0 -16627-4 0  9996,2 52365  53.2137 247.5341 0002270  45.5776 203.0583 15.07205068  1304,2022-045AL,52365,6922.882,95.541,546.319,543.176,0
GENERATED VIA SPACETRACK.ORG API,18 SPCS,52365,STARLINK-3874,PAYLOAD,U,22045AL,2022-08-21 22:00:00,999936,15.07182282,0.0002104,53.2137,246.0399,50.963,207.3107,0,999,2029,0.0027523,0.00041835,0,3542592,0 STARLINK-3874,1 52365U 22045AL  22233.91667824  .00041835  00000-0  27523-2 0  9991,2 52365  53.2137 246.0399 0002104  50.9630 207.3107 15.07182282 20296,2022-045AL,52365,6922.952,95.543,546.274,543.36,0
GENERATED VIA SPACETRACK.ORG API,18 SPCS,52365,STARLINK-3874,PAYLOAD,U,22045AL,2022-08-21 22:00:00,999936,15.07182282,0.0002104,53.2137,246.0399,50.963,207.3107,0,999,130,0.0027523,0.00041835,0,3542671,0 STARLINK-3874,1 52365U 22045AL  22233.91667824  .00041835  00000-0  27523-2 0  9991,2 52365  53.2137 246.0399 0002104  50.9630 207.3107 15.07182282  1307,2022-045AL,52365,6922.952,95.543,546.274,543.36,0
GENERATED VIA SPACETRACK.ORG API,18 SPCS,52365,STARLINK-3874,PAYLOAD,U,22045AL,2022-08-22 12:00:00,999648,15.0718771,0.0002309,53.2133,243.4298,46.6549,138.4731,0,999,2038,0.0026232,0.00039855,0,3543676,0 STARLINK-3874,1 52365U 22045AL  22234.50001157  .00039855  00000-0  26232-2 0  9993,2 52365  53.2133 243.4298 0002309  46.6549 138.4731 15.07187710 20387,2022-045AL,52365,6922.935,95.542,546.399,543.202,0
GENERATED VIA SPACETRACK.ORG API,18 SPCS,52365,STARLINK-3874,PAYLOAD,U,22045AL,2022-08-22 12:00:00,999648,15.0718771,0.0002309,53.2133,243.4298,46.6549,138.4731,0,999,130,0.0026232,0.00039855,0,3543757,0 STARLINK-3874,1 52365U 22045AL  22234.50001157  .00039855  00000-0  26232-2 0  9993,2 52365  53.2133 243.4298 0002309  46.6549 138.4731 15.07187710  1308,2022-045AL,52365,6922.935,95.542,546.399,543.202,0
GENERATED VIA SPACETRACK.ORG API,18 SPCS,52365,STARLINK-3874,PAYLOAD,U,22045AL,2022-08-22 22:00:00,999936,15.07186534,0.0002147,53.2129,241.562,52.9826,234.1888,0,999,130,0.0027846,0.00042337,0,3544179,0 STARLINK-3874,1 52365U 22045AL  22234.91667824  .00042337  00000-0  27846-2 0  9998,2 52365  53.2129 241.5620 0002147  52.9826 234.1888 15.07186534  1309,2022-045AL,52365,6922.939,95.542,546.29,543.318,0
GENERATED VIA SPACETRACK.ORG API,18 SPCS,52365,STARLINK-3874,PAYLOAD,U,22045AL,2022-08-23 06:00:00,999648,15.07190915,0.0002186,53.2128,240.0709,52.2017,244.5571,0,999,2049,-0.001422,-0.00021856,0,3544450,0 STARLINK-3874,1 52365U 22045AL  22235.25001157 -.00021856  00000-0 -14220-2 0  9994,2 52365  53.2128 240.0709 0002186  52.2017 244.5571 15.07190915 20491,2022-045AL,52365,6922.926,95.542,546.304,543.277,0
GENERATED VIA SPACETRACK.ORG API,18 SPCS,52365,STARLINK-3874,PAYLOAD,U,22045AL,2022-08-23 14:00:01,224,15.07194573,0.0002184,53.213,238.5773,49.5605,256.7975,0,999,130,-0.0013429,-0.00020661,0,3545070,0 STARLINK-3874,1 52365U 22045AL  22235.58334491 -.00020661  00000-0 -13429-2 0  9993,2 52365  53.2130 238.5773 0002184  49.5605 256.7975 15.07194573  1303,2022-045AL,52365,6922.914,95.542,546.291,543.267,0
GENERATED VIA SPACETRACK.ORG API,18 SPCS,52365,STARLINK-3874,PAYLOAD,U,22045AL,2022-08-23 22:00:01,999584,15.07064178,0.0002026,53.2147,237.0806,52.8005,263.2559,0,999,2059,0.022314,0.0035562,0,3545334,0 STARLINK-3874,1 52365U 22045AL  22235.91668981  .00355620  00000-0  22314-1 0  9990,2 52365  53.2147 237.0806 0002026  52.8005 263.2559 15.07064178 20598,2022-045AL,52365,6923.314,95.55,546.581,543.776,0
GENERATED VIA SPACETRACK.ORG API,18 SPCS,52365,STARLINK-3874,PAYLOAD,U,22045AL,2022-08-24 06:00:00,999648,15.07207251,0.0002033,53.2165,235.5874,45.9966,279.5948,0,999,2064,0.068268,0.0112984,0,3545981,0 STARLINK-3874,1 52365U 22045AL  22236.25001157  .01129840  00000-0  68268-1 0  9996,2 52365  53.2165 235.5874 0002033  45.9966 279.5948 15.07207251 20642,2022-045AL,52365,6922.876,95.541,546.148,543.333,0
